CCSDS_OMM_VERS = 2.0
CREATION_DATE  = 
ORIGINATOR     = 

OBJECT_NAME    = SL-3 R/B
OBJECT_ID      = 1982-079B
CENTER_NAME    = EARTH
REF_FRAME      = TEME
TIME_SYSTEM    = UTC
MEAN_ELEMENT_THEORY = SGP/SGP4

EPOCH          = 2026-02-18T05:46:04.410912
MEAN_MOTION    = 15.24489461
ECCENTRICITY   = .00243103
INCLINATION    = 81.1448
RA_OF_ASC_NODE = 216.0366
ARG_OF_PERICENTER = 231.1336
MEAN_ANOMALY   = 128.7729

EPHEMERIS_TYPE = 0
CLASSIFICATION_TYPE = U
NORAD_CAT_ID   = 13403
ELEMENT_SET_NO = 999
REV_AT_EPOCH   = 37473
BSTAR          = .22021488E-3
MEAN_MOTION_DOT = .5481E-4
MEAN_MOTION_DDOT = 0

CCSDS_OMM_VERS = 2.0
CREATION_DATE  = 
ORIGINATOR     = 

OBJECT_NAME    = SL-14 R/B
OBJECT_ID      = 1982-092B
CENTER_NAME    = EARTH
REF_FRAME      = TEME
TIME_SYSTEM    = UTC
MEAN_ELEMENT_THEORY = SGP/SGP4

EPOCH          = 2026-02-18T06:01:53.160672
MEAN_MOTION    = 14.86644781
ECCENTRICITY   = .00205012
INCLINATION    = 82.5710
RA_OF_ASC_NODE = 159.5755
ARG_OF_PERICENTER = 10.1703
MEAN_ANOMALY   = 8.9137

EPHEMERIS_TYPE = 0
CLASSIFICATION_TYPE = U
NORAD_CAT_ID   = 13553
ELEMENT_SET_NO = 999
REV_AT_EPOCH   = 32604
BSTAR          = .57120717E-4
MEAN_MOTION_DOT = .533E-5
MEAN_MOTION_DDOT = 0

CCSDS_OMM_VERS = 2.0
CREATION_DATE  = 
ORIGINATOR     = 

OBJECT_NAME    = SL-3 R/B
OBJECT_ID      = 1983-010B
CENTER_NAME    = EARTH
REF_FRAME      = TEME
TIME_SYSTEM    = UTC
MEAN_ELEMENT_THEORY = SGP/SGP4

EPOCH          = 2026-02-18T05:08:06.975168
MEAN_MOTION    = 15.45619617
ECCENTRICITY   = .00185442
INCLINATION    = 81.1032
RA_OF_ASC_NODE = 26.1094
ARG_OF_PERICENTER = 112.2975
MEAN_ANOMALY   = 248.0237

EPHEMERIS_TYPE = 0
CLASSIFICATION_TYPE = U
NORAD_CAT_ID   = 13819
ELEMENT_SET_NO = 999
REV_AT_EPOCH   = 35493
BSTAR          = .30712513E-3
MEAN_MOTION_DOT = .14922E-3
MEAN_MOTION_DDOT = 0

CCSDS_OMM_VERS = 2.0
CREATION_DATE  = 
ORIGINATOR     = 

OBJECT_NAME    = SL-3 R/B
OBJECT_ID      = 1983-075B
CENTER_NAME    = EARTH
REF_FRAME      = TEME
TIME_SYSTEM    = UTC
MEAN_ELEMENT_THEORY = SGP/SGP4

EPOCH          = 2026-02-18T05:39:13.339584
MEAN_MOTION    = 15.37905778
ECCENTRICITY   = .00200019
INCLINATION    = 97.6128
RA_OF_ASC_NODE = 53.0857
ARG_OF_PERICENTER = 302.5963
MEAN_ANOMALY   = 57.3350

EPHEMERIS_TYPE = 0
CLASSIFICATION_TYPE = U
NORAD_CAT_ID   = 14208
ELEMENT_SET_NO = 999
REV_AT_EPOCH   = 32716
BSTAR          = .29090633E-3
MEAN_MOTION_DOT = .10828E-3
MEAN_MOTION_DDOT = 0

CCSDS_OMM_VERS = 2.0
CREATION_DATE  = 
ORIGINATOR     = 

OBJECT_NAME    = COSMOS 1536
OBJECT_ID      = 1984-013A
CENTER_NAME    = EARTH
REF_FRAME      = TEME
TIME_SYSTEM    = UTC
MEAN_ELEMENT_THEORY = SGP/SGP4

EPOCH          = 2026-02-18T05:09:51.760224
MEAN_MOTION    = 15.23550538
ECCENTRICITY   = .00139872
INCLINATION    = 82.5463
RA_OF_ASC_NODE = 127.2029
ARG_OF_PERICENTER = 357.1321
MEAN_ANOMALY   = 2.9833

EPHEMERIS_TYPE = 0
CLASSIFICATION_TYPE = U
NORAD_CAT_ID   = 14699
ELEMENT_SET_NO = 999
REV_AT_EPOCH   = 26965
BSTAR          = .23043893E-3
MEAN_MOTION_DOT = .5552E-4
MEAN_MOTION_DDOT = 0

CCSDS_OMM_VERS = 2.0
CREATION_DATE  = 
ORIGINATOR     = 

OBJECT_NAME    = SL-14 R/B
OBJECT_ID      = 1984-027B
CENTER_NAME    = EARTH
REF_FRAME      = TEME
TIME_SYSTEM    = UTC
MEAN_ELEMENT_THEORY = SGP/SGP4

EPOCH          = 2026-02-18T02:20:52.005696
MEAN_MOTION    = 14.85955856
ECCENTRICITY   = .00189953
INCLINATION    = 82.5386
RA_OF_ASC_NODE = 263.3925
ARG_OF_PERICENTER = 41.9971
MEAN_ANOMALY   = 318.2698

EPHEMERIS_TYPE = 0
CLASSIFICATION_TYPE = U
NORAD_CAT_ID   = 14820
ELEMENT_SET_NO = 999
REV_AT_EPOCH   = 24472
BSTAR          = .42807439E-4
MEAN_MOTION_DOT = .399E-5
MEAN_MOTION_DDOT = 0

CCSDS_OMM_VERS = 2.0
CREATION_DATE  = 
ORIGINATOR     = 

OBJECT_NAME    = SL-8 R/B
OBJECT_ID      = 1985-006B
CENTER_NAME    = EARTH
REF_FRAME      = TEME
TIME_SYSTEM    = UTC
MEAN_ELEMENT_THEORY = SGP/SGP4

EPOCH          = 2026-02-18T04:37:53.611104
MEAN_MOTION    = 14.37773271
ECCENTRICITY   = .00192068
INCLINATION    = 74.0456
RA_OF_ASC_NODE = 297.0254
ARG_OF_PERICENTER = 218.8902
MEAN_ANOMALY   = 292.1161

EPHEMERIS_TYPE = 0
CLASSIFICATION_TYPE = U
NORAD_CAT_ID   = 15483
ELEMENT_SET_NO = 999
REV_AT_EPOCH   = 15122
BSTAR          = .72831739E-4
MEAN_MOTION_DOT = .193E-5
MEAN_MOTION_DDOT = 0

CCSDS_OMM_VERS = 2.0
CREATION_DATE  = 
ORIGINATOR     = 

OBJECT_NAME    = SL-12 R/B(2)
OBJECT_ID      = 1985-042D
CENTER_NAME    = EARTH
REF_FRAME      = TEME
TIME_SYSTEM    = UTC
MEAN_ELEMENT_THEORY = SGP/SGP4

EPOCH          = 2026-02-18T06:40:22.230912
MEAN_MOTION    = 14.21976890
ECCENTRICITY   = .00343325
INCLINATION    = 71.1082
RA_OF_ASC_NODE = 128.7412
ARG_OF_PERICENTER = 159.5602
MEAN_ANOMALY   = 258.0891

EPHEMERIS_TYPE = 0
CLASSIFICATION_TYPE = U
NORAD_CAT_ID   = 15772
ELEMENT_SET_NO = 999
REV_AT_EPOCH   = 11163
BSTAR          = .68136092E-4
MEAN_MOTION_DOT = .104E-5
MEAN_MOTION_DDOT = 0

CCSDS_OMM_VERS = 2.0
CREATION_DATE  = 
ORIGINATOR     = 

OBJECT_NAME    = SL-14 R/B
OBJECT_ID      = 1985-069B
CENTER_NAME    = EARTH
REF_FRAME      = TEME
TIME_SYSTEM    = UTC
MEAN_ELEMENT_THEORY = SGP/SGP4

EPOCH          = 2026-02-18T00:30:32.854176
MEAN_MOTION    = 14.86408730
ECCENTRICITY   = .00171627
INCLINATION    = 82.5248
RA_OF_ASC_NODE = 43.4299
ARG_OF_PERICENTER = 256.7410
MEAN_ANOMALY   = 103.1893

EPHEMERIS_TYPE = 0
CLASSIFICATION_TYPE = U
NORAD_CAT_ID   = 15945
ELEMENT_SET_NO = 999
REV_AT_EPOCH   = 16991
BSTAR          = .54314424E-4
MEAN_MOTION_DOT = .504E-5
MEAN_MOTION_DDOT = 0

CCSDS_OMM_VERS = 2.0
CREATION_DATE  = 
ORIGINATOR     = 

OBJECT_NAME    = SL-16 R/B
OBJECT_ID      = 1985-097B
CENTER_NAME    = EARTH
REF_FRAME      = TEME
TIME_SYSTEM    = UTC
MEAN_ELEMENT_THEORY = SGP/SGP4

EPOCH          = 2026-02-17T19:12:41.681952
MEAN_MOTION    = 14.16594323
ECCENTRICITY   = .0009711
INCLINATION    = 71.0026
RA_OF_ASC_NODE = 182.4228
ARG_OF_PERICENTER = 282.5299
MEAN_ANOMALY   = 185.1311

EPHEMERIS_TYPE = 0
CLASSIFICATION_TYPE = U
NORAD_CAT_ID   = 16182
ELEMENT_SET_NO = 999
REV_AT_EPOCH   = 8441
BSTAR          = -.16026E-4
MEAN_MOTION_DOT = -.8E-6
MEAN_MOTION_DDOT = 0

CCSDS_OMM_VERS = 2.0
CREATION_DATE  = 
ORIGINATOR     = 

OBJECT_NAME    = SL-14 R/B
OBJECT_ID      = 1986-006B
CENTER_NAME    = EARTH
REF_FRAME      = TEME
TIME_SYSTEM    = UTC
MEAN_ELEMENT_THEORY = SGP/SGP4

EPOCH          = 2026-02-18T03:18:46.483200
MEAN_MOTION    = 14.86788418
ECCENTRICITY   = .0076084
INCLINATION    = 82.5250
RA_OF_ASC_NODE = 278.1419
ARG_OF_PERICENTER = 338.6578
MEAN_ANOMALY   = 21.1470

EPHEMERIS_TYPE = 0
CLASSIFICATION_TYPE = U
NORAD_CAT_ID   = 16496
ELEMENT_SET_NO = 999
REV_AT_EPOCH   = 14630
BSTAR          = .6070324E-4
MEAN_MOTION_DOT = .596E-5
MEAN_MOTION_DDOT = 0

CCSDS_OMM_VERS = 2.0
CREATION_DATE  = 
ORIGINATOR     = 

OBJECT_NAME    = COSMOS 1743
OBJECT_ID      = 1986-034A
CENTER_NAME    = EARTH
REF_FRAME      = TEME
TIME_SYSTEM    = UTC
MEAN_ELEMENT_THEORY = SGP/SGP4

EPOCH          = 2026-02-18T04:17:03.549120
MEAN_MOTION    = 15.57095577
ECCENTRICITY   = .00041947
INCLINATION    = 82.5306
RA_OF_ASC_NODE = 94.2855
ARG_OF_PERICENTER = 23.6231
MEAN_ANOMALY   = 336.5216

EPHEMERIS_TYPE = 0
CLASSIFICATION_TYPE = U
NORAD_CAT_ID   = 16719
ELEMENT_SET_NO = 999
REV_AT_EPOCH   = 17721
BSTAR          = .41460556E-3
MEAN_MOTION_DOT = .30127E-3
MEAN_MOTION_DDOT = 0

