SL-3 R/B                
1 13403U 82079B   26049.24032883  .00005481  00000+0  22021-3 0  9995
2 13403  81.1448 216.0366 0024310 231.1336 128.7729 15.24489461374736
SL-14 R/B               
1 13553U 82092B   26049.25130973  .00000533  00000+0  57121-4 0  9999
2 13553  82.5710 159.5755 0020501  10.1703   8.9137 14.86644781326041
SL-3 R/B                
1 13819U 83010B   26049.21396962  .00014922  00000+0  30713-3 0  9997
2 13819  81.1032  26.1094 0018544 112.2975 248.0237 15.45619617354935
SL-3 R/B                
1 14208U 83075B   26049.23557106  .00010828  00000+0  29091-3 0  9990
2 14208  97.6128  53.0857 0020001 302.5963  57.3350 15.37905778327163
COSMOS 1536             
1 14699U 84013A   26049.21518241  .00005552  00000+0  23044-3 0  9992
2 14699  82.5463 127.2029 0013987 357.1321   2.9833 15.23550538269652
SL-14 R/B               
1 14820U 84027B   26049.09782414  .00000399  00000+0  42807-4 0  9997
2 14820  82.5386 263.3925 0018995  41.9971 318.2698 14.85955856244724
SL-8 R/B                
1 15483U 85006B   26049.19298161  .00000193  00000+0  72832-4 0  9996
2 15483  74.0456 297.0254 0019206 218.8902 292.1161 14.37773271151221
SL-12 R/B(2)            
1 15772U 85042D   26049.27803508  .00000104  00000+0  68136-4 0  9997
2 15772  71.1082 128.7412 0034332 159.5602 258.0891 14.21976890111633
SL-14 R/B               
1 15945U 85069B   26049.02121359  .00000504  00000+0  54314-4 0  9995
2 15945  82.5248  43.4299 0017162 256.7410 103.1893 14.86408730169910
SL-16 R/B               
1 16182U 85097B   26048.80048243 -.00000080  00000+0 -16026-4 0  9994
2 16182  71.0026 182.4228 0009711 282.5299 185.1311 14.16594323 84413
SL-14 R/B               
1 16496U 86006B   26049.13803800  .00000596  00000+0  60703-4 0  9999
2 16496  82.5250 278.1419 0076084 338.6578  21.1470 14.86788418146301
COSMOS 1743             
1 16719U 86034A   26049.17851330  .00030127  00000+0  41461-3 0  9995
2 16719  82.5306  94.2855 0004194  23.6231 336.5216 15.57095577177213
